CCSDS_OMM_VERS = 2.0
CREATION_DATE  = 
ORIGINATOR     = 

OBJECT_NAME    = STARLINK-36715
OBJECT_ID      = 2026-025Z
CENTER_NAME    = EARTH
REF_FRAME      = TEME
TIME_SYSTEM    = UTC
MEAN_ELEMENT_THEORY = SGP/SGP4

EPOCH          = 2026-02-21T12:00:01.999296
MEAN_MOTION    = 15.89130388
ECCENTRICITY   = .000131
INCLINATION    = 97.2693
RA_OF_ASC_NODE = 163.3038
ARG_OF_PERICENTER = 67.2108
MEAN_ANOMALY   = 277.8628

EPHEMERIS_TYPE = 0
CLASSIFICATION_TYPE = U
NORAD_CAT_ID   = 67716
ELEMENT_SET_NO = 999
REV_AT_EPOCH   = 331
BSTAR          = -.63316E-2
MEAN_MOTION_DOT = -.155411E-1
MEAN_MOTION_DDOT = 0

CCSDS_OMM_VERS = 2.0
CREATION_DATE  = 
ORIGINATOR     = 

OBJECT_NAME    = STARLINK-36385
OBJECT_ID      = 2026-025AA
CENTER_NAME    = EARTH
REF_FRAME      = TEME
TIME_SYSTEM    = UTC
MEAN_ELEMENT_THEORY = SGP/SGP4

EPOCH          = 2026-02-21T12:00:01.999296
MEAN_MOTION    = 15.88159424
ECCENTRICITY   = .0001323
INCLINATION    = 97.2697
RA_OF_ASC_NODE = 163.2921
ARG_OF_PERICENTER = 72.6278
MEAN_ANOMALY   = 244.9801

EPHEMERIS_TYPE = 0
CLASSIFICATION_TYPE = U
NORAD_CAT_ID   = 67717
ELEMENT_SET_NO = 999
REV_AT_EPOCH   = 331
BSTAR          = -.67478E-2
MEAN_MOTION_DOT = -.160877E-1
MEAN_MOTION_DDOT = 0

CCSDS_OMM_VERS = 2.0
CREATION_DATE  = 
ORIGINATOR     = 

OBJECT_NAME    = CZ-2F DEB
OBJECT_ID      = 2026-024E
CENTER_NAME    = EARTH
REF_FRAME      = TEME
TIME_SYSTEM    = UTC
MEAN_ELEMENT_THEORY = SGP/SGP4

EPOCH          = 2026-02-21T10:59:18.230496
MEAN_MOTION    = 15.18376098
ECCENTRICITY   = .0254925
INCLINATION    = 50.3137
RA_OF_ASC_NODE = 98.0689
ARG_OF_PERICENTER = 216.1658
MEAN_ANOMALY   = 142.1825

EPHEMERIS_TYPE = 0
CLASSIFICATION_TYPE = U
NORAD_CAT_ID   = 67718
ELEMENT_SET_NO = 999
REV_AT_EPOCH   = 216
BSTAR          = .4322E-2
MEAN_MOTION_DOT = .221628E-2
MEAN_MOTION_DDOT = 0

CCSDS_OMM_VERS = 2.0
CREATION_DATE  = 
ORIGINATOR     = 

OBJECT_NAME    = CZ-2F DEB
OBJECT_ID      = 2026-024F
CENTER_NAME    = EARTH
REF_FRAME      = TEME
TIME_SYSTEM    = UTC
MEAN_ELEMENT_THEORY = SGP/SGP4

EPOCH          = 2026-02-21T12:07:54.245280
MEAN_MOTION    = 14.98554430
ECCENTRICITY   = .0329134
INCLINATION    = 49.7898
RA_OF_ASC_NODE = 99.5160
ARG_OF_PERICENTER = 206.6125
MEAN_ANOMALY   = 151.7590

EPHEMERIS_TYPE = 0
CLASSIFICATION_TYPE = U
NORAD_CAT_ID   = 67719
ELEMENT_SET_NO = 999
REV_AT_EPOCH   = 181
BSTAR          = .41566E-2
MEAN_MOTION_DOT = .164672E-2
MEAN_MOTION_DDOT = 0

CCSDS_OMM_VERS = 2.0
CREATION_DATE  = 
ORIGINATOR     = 

OBJECT_NAME    = CZ-2F DEB
OBJECT_ID      = 2026-024G
CENTER_NAME    = EARTH
REF_FRAME      = TEME
TIME_SYSTEM    = UTC
MEAN_ELEMENT_THEORY = SGP/SGP4

EPOCH          = 2026-02-21T11:08:33.994176
MEAN_MOTION    = 14.95878698
ECCENTRICITY   = .0339839
INCLINATION    = 49.8295
RA_OF_ASC_NODE = 100.0037
ARG_OF_PERICENTER = 202.9144
MEAN_ANOMALY   = 155.6323

EPHEMERIS_TYPE = 0
CLASSIFICATION_TYPE = U
NORAD_CAT_ID   = 67720
ELEMENT_SET_NO = 999
REV_AT_EPOCH   = 212
BSTAR          = .42869E-2
MEAN_MOTION_DOT = .165387E-2
MEAN_MOTION_DDOT = 0

CCSDS_OMM_VERS = 2.0
CREATION_DATE  = 
ORIGINATOR     = 

OBJECT_NAME    = STARLINK-36772
OBJECT_ID      = 2026-026A
CENTER_NAME    = EARTH
REF_FRAME      = TEME
TIME_SYSTEM    = UTC
MEAN_ELEMENT_THEORY = SGP/SGP4

EPOCH          = 2026-02-11T18:04:34.000320
MEAN_MOTION    = 16.07750770
ECCENTRICITY   = .00034
INCLINATION    = 97.2800
RA_OF_ASC_NODE = 95.5280
ARG_OF_PERICENTER = 259.0800
MEAN_ANOMALY   = 81.2200

EPHEMERIS_TYPE = 0
CLASSIFICATION_TYPE = U
NORAD_CAT_ID   = 67721
ELEMENT_SET_NO = 999
REV_AT_EPOCH   = 1
BSTAR          = 0
MEAN_MOTION_DOT = -.725E-5
MEAN_MOTION_DDOT = .2293429E-5

CCSDS_OMM_VERS = 2.0
CREATION_DATE  = 
ORIGINATOR     = 

OBJECT_NAME    = STARLINK-36796
OBJECT_ID      = 2026-026B
CENTER_NAME    = EARTH
REF_FRAME      = TEME
TIME_SYSTEM    = UTC
MEAN_ELEMENT_THEORY = SGP/SGP4

EPOCH          = 2026-02-21T12:00:01.999296
MEAN_MOTION    = 15.90647696
ECCENTRICITY   = .0001362
INCLINATION    = 97.2746
RA_OF_ASC_NODE = 106.2719
ARG_OF_PERICENTER = 85.3559
MEAN_ANOMALY   = 335.8900

EPHEMERIS_TYPE = 0
CLASSIFICATION_TYPE = U
NORAD_CAT_ID   = 67722
ELEMENT_SET_NO = 999
REV_AT_EPOCH   = 270
BSTAR          = -.57857E-2
MEAN_MOTION_DOT = -.1763238E-1
MEAN_MOTION_DDOT = .84958E-3

CCSDS_OMM_VERS = 2.0
CREATION_DATE  = 
ORIGINATOR     = 

OBJECT_NAME    = STARLINK-36369
OBJECT_ID      = 2026-026C
CENTER_NAME    = EARTH
REF_FRAME      = TEME
TIME_SYSTEM    = UTC
MEAN_ELEMENT_THEORY = SGP/SGP4

EPOCH          = 2026-02-21T12:00:01.999296
MEAN_MOTION    = 15.90822570
ECCENTRICITY   = .0001356
INCLINATION    = 97.2745
RA_OF_ASC_NODE = 106.2740
ARG_OF_PERICENTER = 75.9535
MEAN_ANOMALY   = 349.2652

EPHEMERIS_TYPE = 0
CLASSIFICATION_TYPE = U
NORAD_CAT_ID   = 67723
ELEMENT_SET_NO = 999
REV_AT_EPOCH   = 270
BSTAR          = -.56763E-2
MEAN_MOTION_DOT = -.1745479E-1
MEAN_MOTION_DDOT = .83518E-3

CCSDS_OMM_VERS = 2.0
CREATION_DATE  = 
ORIGINATOR     = 

OBJECT_NAME    = STARLINK-36752
OBJECT_ID      = 2026-026D
CENTER_NAME    = EARTH
REF_FRAME      = TEME
TIME_SYSTEM    = UTC
MEAN_ELEMENT_THEORY = SGP/SGP4

EPOCH          = 2026-02-21T12:00:01.999296
MEAN_MOTION    = 15.91069234
ECCENTRICITY   = .0001445
INCLINATION    = 97.2748
RA_OF_ASC_NODE = 106.2766
ARG_OF_PERICENTER = 80.0390
MEAN_ANOMALY   = 350.2924

EPHEMERIS_TYPE = 0
CLASSIFICATION_TYPE = U
NORAD_CAT_ID   = 67724
ELEMENT_SET_NO = 999
REV_AT_EPOCH   = 270
BSTAR          = -.56195E-2
MEAN_MOTION_DOT = -.1749728E-1
MEAN_MOTION_DDOT = .84103E-3

CCSDS_OMM_VERS = 2.0
CREATION_DATE  = 
ORIGINATOR     = 

OBJECT_NAME    = STARLINK-36754
OBJECT_ID      = 2026-026E
CENTER_NAME    = EARTH
REF_FRAME      = TEME
TIME_SYSTEM    = UTC
MEAN_ELEMENT_THEORY = SGP/SGP4

EPOCH          = 2026-02-21T12:00:01.999296
MEAN_MOTION    = 15.91253520
ECCENTRICITY   = .0001426
INCLINATION    = 97.2743
RA_OF_ASC_NODE = 106.2777
ARG_OF_PERICENTER = 84.2162
MEAN_ANOMALY   = 350.1455

EPHEMERIS_TYPE = 0
CLASSIFICATION_TYPE = U
NORAD_CAT_ID   = 67725
ELEMENT_SET_NO = 999
REV_AT_EPOCH   = 270
BSTAR          = -.55494E-2
MEAN_MOTION_DOT = -.1744221E-1
MEAN_MOTION_DDOT = .83765E-3

CCSDS_OMM_VERS = 2.0
CREATION_DATE  = 
ORIGINATOR     = 

OBJECT_NAME    = STARLINK-36755
OBJECT_ID      = 2026-026F
CENTER_NAME    = EARTH
REF_FRAME      = TEME
TIME_SYSTEM    = UTC
MEAN_ELEMENT_THEORY = SGP/SGP4

EPOCH          = 2026-02-21T12:00:01.999296
MEAN_MOTION    = 15.91486135
ECCENTRICITY   = .0001341
INCLINATION    = 97.2737
RA_OF_ASC_NODE = 106.2789
ARG_OF_PERICENTER = 83.3693
MEAN_ANOMALY   = 356.0331

EPHEMERIS_TYPE = 0
CLASSIFICATION_TYPE = U
NORAD_CAT_ID   = 67726
ELEMENT_SET_NO = 999
REV_AT_EPOCH   = 270
BSTAR          = -.54334E-2
MEAN_MOTION_DOT = -.1728275E-1
MEAN_MOTION_DDOT = .82538E-3

CCSDS_OMM_VERS = 2.0
CREATION_DATE  = 
ORIGINATOR     = 

OBJECT_NAME    = STARLINK-36741
OBJECT_ID      = 2026-026G
CENTER_NAME    = EARTH
REF_FRAME      = TEME
TIME_SYSTEM    = UTC
MEAN_ELEMENT_THEORY = SGP/SGP4

EPOCH          = 2026-02-21T12:00:01.999296
MEAN_MOTION    = 15.91631343
ECCENTRICITY   = .0001316
INCLINATION    = 97.2732
RA_OF_ASC_NODE = 106.2801
ARG_OF_PERICENTER = 82.7778
MEAN_ANOMALY   = 359.9110

EPHEMERIS_TYPE = 0
CLASSIFICATION_TYPE = U
NORAD_CAT_ID   = 67727
ELEMENT_SET_NO = 999
REV_AT_EPOCH   = 270
BSTAR          = -.53634E-2
MEAN_MOTION_DOT = -.1718836E-1
MEAN_MOTION_DDOT = .81821E-3

