STARLINK-36715          
1 67716U 26025Z   26052.50002314 -.01554110  00000+0 -63316-2 0  9991
2 67716  97.2693 163.3038 0001310  67.2108 277.8628 15.89130388  3311
STARLINK-36385          
1 67717U 26025AA  26052.50002314 -.01608770  00000+0 -67478-2 0  9997
2 67717  97.2697 163.2921 0001323  72.6278 244.9801 15.88159424  3317
CZ-2F DEB               
1 67718U 26024E   26052.45784989  .00221628  00000+0  43220-2 0  9995
2 67718  50.3137  98.0689 0254925 216.1658 142.1825 15.18376098  2166
CZ-2F DEB               
1 67719U 26024F   26052.50548895  .00164672  00000+0  41566-2 0  9992
2 67719  49.7898  99.5160 0329134 206.6125 151.7590 14.98554430  1812
CZ-2F DEB               
1 67720U 26024G   26052.46428234  .00165387  00000+0  42869-2 0  9994
2 67720  49.8295 100.0037 0339839 202.9144 155.6323 14.95878698  2124
STARLINK-36772          
1 67721U 26026A   26042.75317130 -.00000725  22934-5  00000+0 0  9999
2 67721  97.2800  95.5280 0003400 259.0800  81.2200 16.07750770    15
STARLINK-36796          
1 67722U 26026B   26052.50002314 -.01763238  84958-3 -57857-2 0  9993
2 67722  97.2746 106.2719 0001362  85.3559 335.8900 15.90647696  2704
STARLINK-36369          
1 67723U 26026C   26052.50002314 -.01745479  83518-3 -56763-2 0  9997
2 67723  97.2745 106.2740 0001356  75.9535 349.2652 15.90822570  2709
STARLINK-36752          
1 67724U 26026D   26052.50002314 -.01749728  84103-3 -56195-2 0  9999
2 67724  97.2748 106.2766 0001445  80.0390 350.2924 15.91069234  2701
STARLINK-36754          
1 67725U 26026E   26052.50002314 -.01744221  83765-3 -55494-2 0  9997
2 67725  97.2743 106.2777 0001426  84.2162 350.1455 15.91253520  2702
STARLINK-36755          
1 67726U 26026F   26052.50002314 -.01728275  82538-3 -54334-2 0  9998
2 67726  97.2737 106.2789 0001341  83.3693 356.0331 15.91486135  2702
STARLINK-36741          
1 67727U 26026G   26052.50002314 -.01718836  81821-3 -53634-2 0  9997
2 67727  97.2732 106.2801 0001316  82.7778 359.9110 15.91631343  2702
